EPOCH,NORAD_CAT_ID,MEAN_MOTION,ECCENTRICITY,INCLINATION,RA_OF_ASC_NODE,ARG_OF_PERICENTER,MEAN_ANOMALY,MEAN_MOTION_DOT,BSTAR,TLE_LINE1,TLE_LINE2
2023-12-12 23:41:54.735648,50803,15.08839994,0.00014900,53.2166,239.9288,90.2069,269.9093,0.00000977,0.00007948400000,1 50803U 22001A   23346.98743907  .00000977  00000-0  79484-4 0  9995,2 50803  53.2166 239.9288 0001490  90.2069 269.9093 15.08839994106968
2023-12-13 20:21:56.281248,50803,15.08834143,0.00015740,53.2169,236.0621,97.1375,262.9796,-0.00001028,-0.00004648000000,1 50803U 22001A   23347.84856807 -.00001028  00000-0 -46480-4 0  9995,2 50803  53.2169 236.0621 0001574  97.1375 262.9796 15.08834143108369
2023-12-13 21:57:19.419840,50803,15.08834282,0.00015690,53.2169,235.7648,96.1431,263.9740,-0.00001033,-0.00004679600000,1 50803U 22001A   23347.91480810 -.00001033  00000-0 -46796-4 0  9996,2 50803  53.2169 235.7648 0001569  96.1431 263.9740 15.08834282107105
2023-12-13 23:32:42.572256,50803,15.08834483,0.00015560,53.2169,235.4677,93.5023,266.6147,-0.00001043,-0.00004743400000,1 50803U 22001A   23347.98104829 -.00001043  00000-0 -47434-4 0  9997,2 50803  53.2169 235.4677 0001556  93.5023 266.6147 15.08834483107113
2023-12-14 21:48:06.362208,50803,15.08835665,0.00014960,53.2168,231.3068,82.5938,277.5224,0.00000489,0.00004883200000,1 50803U 22001A   23348.90840697  .00000489  00000-0  48832-4 0  9994,2 50803  53.2168 231.3068 0001496  82.5938 277.5224 15.08835665107252
2023-12-14 23:23:29.250240,50803,15.08839440,0.00015420,53.2170,231.0075,88.9315,271.1853,0.00000629,0.00005760500000,1 50803U 22001A   23348.97464410  .00000629  00000-0  57605-4 0  9990,2 50803  53.2170 231.0075 0001542  88.9315 271.1853 15.08839440108536
2023-12-14 23:23:29.250240,50803,15.08839440,0.00015420,53.2170,231.0075,88.9315,271.1853,0.00000629,0.00005760500000,1 50803U 22001A   23348.97464410  .00000629  00000-0  57605-4 0  9990,2 50803  53.2170 231.0075 0001542  88.9315 271.1853 15.08839440107265
2023-12-15 20:03:31.031712,50803,15.08830134,0.00015680,53.2168,227.1453,104.9237,255.1928,-0.00000153,0.00000845710000,1 50803U 22001A   23349.83577583 -.00000153  00000-0  84571-5 0  9998,2 50803  53.2168 227.1453 0001568 104.9237 255.1928 15.08830134108669
2023-12-15 21:38:54.265344,50803,15.08829985,0.00014390,53.2173,226.8491,90.8040,269.3117,-0.00000053,0.00001473600000,1 50803U 22001A   23349.90201696 -.00000053  00000-0  14736-4 0  9999,2 50803  53.2173 226.8491 0001439  90.8040 269.3117 15.08829985107405
2023-12-16 19:54:17.340768,50803,15.08854988,0.00014340,53.2168,222.6840,109.2027,250.9120,-0.00001633,-0.00008451000000,1 50803U 22001A   23350.82936737 -.00001633  00000-0 -84510-4 0  9996,2 50803  53.2168 222.6840 0001434 109.2027 250.9120 15.08854988108813
2023-12-16 21:29:40.081056,50803,15.08851609,0.00014320,53.2167,222.3857,103.8812,256.2340,0.00001254,0.00009681300000,1 50803U 22001A   23350.89560279  .00001254  00000-0  96813-4 0  9993,2 50803  53.2167 222.3857 0001432 103.8812 256.2340 15.08851609107557
2023-12-16 23:05:03.566976,50803,15.08847489,0.00014250,53.2168,222.0882,85.7373,274.3782,0.00000825,0.00006991600000,1 50803U 22001A   23350.96184684  .00000825  00000-0  69916-4 0  9990,2 50803  53.2168 222.0882 0001425  85.7373 274.3782 15.08847489107568
2023-12-17 19:45:04.438656,50803,15.08851424,0.00014210,53.2168,218.2240,105.5886,254.5263,-0.00000970,-0.00004287000000,1 50803U 22001A   23351.82296804 -.00000970  00000-0 -42870-4 0  9997,2 50803  53.2168 218.2240 0001421 105.5886 254.5263 15.08851424108962
2023-12-17 21:20:27.499488,50803,15.08851589,0.00014360,53.2171,217.9284,103.9562,256.1590,-0.00000504,-0.00001355900000,1 50803U 22001A   23351.88920717 -.00000504  00000-0 -13559-4 0  9995,2 50803  53.2171 217.9284 0001436 103.9562 256.1590 15.08851589107703
2023-12-17 22:55:50.683872,50803,15.08846207,0.00016020,53.2167,217.6293,95.7854,264.3320,0.00001294,0.00009939100000,1 50803U 22001A   23351.95544773  .00001294  00000-0  99391-4 0  9990,2 50803  53.2167 217.6293 0001602  95.7854 264.3320 15.08846207107716
2023-12-18 19:35:52.028160,50803,15.08834574,0.00018960,53.2172,213.7616,58.7169,301.4008,0.00000948,0.00007766100000,1 50803U 22001A   23352.81657440  .00000948  00000-0  77661-4 0  9993,2 50803  53.2172 213.7616 0001896  58.7169 301.4008 15.08834574109117
2023-12-18 21:11:15.029376,50803,15.08844872,0.00017280,53.2167,213.4659,64.2660,295.8510,-0.00001223,-0.00005872000000,1 50803U 22001A   23352.88281284 -.00001223  00000-0 -58720-4 0  9993,2 50803  53.2167 213.4659 0001728  64.2660 295.8510 15.08844872109124
2023-12-18 21:11:15.029376,50803,15.08844872,0.00017280,53.2167,213.4659,64.2660,295.8510,-0.00001223,-0.00005872000000,1 50803U 22001A   23352.88281284 -.00001223  00000-0 -58720-4 0  9993,2 50803  53.2167 213.4659 0001728  64.2660 295.8510 15.08844872107852
2023-12-19 19:26:39.142464,50803,15.08816929,0.00013190,53.2149,209.3018,90.0575,270.0568,0.00003825,0.00025843000000,1 50803U 22001A   23353.81017526  .00003825  00000-0  25843-3 0  9990,2 50803  53.2149 209.3018 0001319  90.0575 270.0568 15.08816929109260
2023-12-19 21:02:02.153184,50803,15.08840379,0.00014560,53.2151,209.0071,79.4812,280.6344,-0.00000935,-0.00004066900000,1 50803U 22001A   23353.87641381 -.00000935  00000-0 -40669-4 0  9993,2 50803  53.2151 209.0071 0001456  79.4812 280.6344 15.08840379108002
2023-12-19 21:02:02.153184,50803,15.08840379,0.00014560,53.2151,209.0071,79.4812,280.6344,-0.00000935,-0.00004066900000,1 50803U 22001A   23353.87641381 -.00000935  00000-0 -40669-4 0  9993,2 50803  53.2151 209.0071 0001456  79.4812 280.6344 15.08840379109272
2023-12-20 20:52:48.738720,50803,15.08841686,0.00014550,53.2153,204.5426,86.8058,273.3101,0.00001155,0.00009062500000,1 50803U 22001A   23354.87000855  .00001155  00000-0  90625-4 0  9999,2 50803  53.2153 204.5426 0001455  86.8058 273.3101 15.08841686108159
2023-12-21 20:43:36.215040,50803,15.08836865,0.00014000,53.2158,200.0780,91.2499,268.8653,0.00000347,0.00003988700000,1 50803U 22001A   23355.86361360  .00000347  00000-0  39887-4 0  9995,2 50803  53.2158 200.0780 0001400  91.2499 268.8653 15.08836865108308
2023-12-21 20:43:36.215040,50803,15.08836865,0.00014000,53.2158,200.0780,91.2499,268.8653,0.00000347,0.00003988700000,1 50803U 22001A   23355.86361360  .00000347  00000-0  39887-4 0  9995,2 50803  53.2158 200.0780 0001400  91.2499 268.8653 15.08836865109578
2023-12-22 18:58:59.640384,50803,15.08846384,0.00014350,53.2153,195.9139,106.6462,253.4688,0.00000285,0.00003596400000,1 50803U 22001A   23356.79096806  .00000285  00000-0  35964-4 0  9991,2 50803  53.2153 195.9139 0001435 106.6462 253.4688 15.08846384108442
2023-12-22 18:58:59.640384,50803,15.08846384,0.00014350,53.2153,195.9139,106.6462,253.4688,0.00000285,0.00003596400000,1 50803U 22001A   23356.79096806  .00000285  00000-0  35964-4 0  9991,2 50803  53.2153 195.9139 0001435 106.6462 253.4688 15.08846384109713
2023-12-23 18:49:47.279136,50803,15.08838660,0.00012900,53.2156,191.4558,106.5042,253.6092,0.00000421,0.00004451000000,1 50803U 22001A   23357.78457499  .00000421  00000-0  44510-4 0  9999,2 50803  53.2156 191.4558 0001290 106.5042 253.6092 15.08838660109869
2023-12-23 18:49:47.279136,50803,15.08838660,0.00012900,53.2156,191.4558,106.5042,253.6092,0.00000421,0.00004451000000,1 50803U 22001A   23357.78457499  .00000421  00000-0  44510-4 0  9999,2 50803  53.2156 191.4558 0001290 106.5042 253.6092 15.08838660108598
2023-12-23 23:35:56.904864,50803,15.08836638,0.00013290,53.2158,190.5673,106.5075,253.6063,0.00000164,0.00002840500000,1 50803U 22001A   23357.98329751  .00000164  00000-0  28405-4 0  9999,2 50803  53.2158 190.5673 0001329 106.5075 253.6063 15.08836638108622
2023-12-24 20:15:56.946240,50803,15.08862000,0.00025540,53.2152,186.6991,146.1119,214.0037,-0.00003940,-0.00022940000000,1 50803U 22001A   23358.84440910 -.00003940  00000-0 -22940-3 0  9990,2 50803  53.2152 186.6991 0002554 146.1119 214.0037 15.08862000108753
2023-12-24 20:15:56.946240,50803,15.08862000,0.00025540,53.2152,186.6991,146.1119,214.0037,-0.00003940,-0.00022940000000,1 50803U 22001A   23358.84440910 -.00003940  00000-0 -22940-3 0  9990,2 50803  53.2152 186.6991 0002554 146.1119 214.0037 15.08862000110026
2023-12-25 20:06:44.622144,50803,15.08841426,0.00013270,53.2160,182.2408,81.0580,279.0562,0.00001187,0.00009263300000,1 50803U 22001A   23359.83801646  .00001187  00000-0  92633-4 0  9993,2 50803  53.2160 182.2408 0001327  81.0580 279.0562 15.08841426110175
2023-12-25 21:42:07.674336,50803,15.08842353,0.00013330,53.2161,181.9431,81.1520,278.9623,0.00001327,0.00010144000000,1 50803U 22001A   23359.90425549  .00001327  00000-0  10144-3 0  9997,2 50803  53.2161 181.9431 0001333  81.1520 278.9623 15.08842353108915
2023-12-26 12:00:36.165312,50803,15.08839381,0.00012920,53.2157,179.2672,88.5034,271.6106,0.00000582,0.00005465400000,1 50803U 22001A   23360.50041858  .00000582  00000-0  54654-4 0  9999,2 50803  53.2157 179.2672 0001292  88.5034 271.6106 15.08839381109006
2023-12-26 18:22:08.438880,50803,15.08842964,0.00012440,53.2154,178.0785,91.4538,268.6597,0.00000562,0.00005337500000,1 50803U 22001A   23360.76537545  .00000562  00000-0  53375-4 0  9997,2 50803  53.2154 178.0785 0001244  91.4538 268.6597 15.08842964109049
2023-12-27 11:51:22.992768,50803,15.08842106,0.00012410,53.2153,174.8075,91.5555,268.5580,0.00000190,0.00003004400000,1 50803U 22001A   23361.49401612  .00000190  00000-0  30044-4 0  9998,2 50803  53.2153 174.8075 0001241  91.5555 268.5580 15.08842106110424
2023-12-27 15:02:09.296736,50803,15.08841685,0.00012540,53.2155,174.2126,90.6375,269.4761,0.00000110,0.00002500900000,1 50803U 22001A   23361.62649649  .00000110  00000-0  25009-4 0  9994,2 50803  53.2155 174.2126 0001254  90.6375 269.4761 15.08841685109173
2023-12-27 18:12:55.454688,50803,15.08842825,0.00012540,53.2156,173.6176,91.3503,268.7632,0.00000224,0.00003218700000,1 50803U 22001A   23361.75897517  .00000224  00000-0  32187-4 0  9998,2 50803  53.2156 173.6176 0001254  91.3503 268.7632 15.08842825109191
